STARLINK-31045          
1 58541U 23192L   24026.91667824  .00082332  00000+0  16284-2 0  9997
2 58541  53.1598  42.9485 0001105  82.9659 134.3509 15.46419148  8998
STARLINK-31030          
1 58542U 23192M   24027.48856529  .00003330  00000+0  13286-3 0  9994
2 58542  53.1597  47.7147 0003095 116.9352 243.1964 15.28018930  8970
STARLINK-31049          
1 58543U 23192N   24027.48387802 -.00001220  00000+0 -31368-4 0  9998
2 58543  53.1612  47.6894 0001993  93.6050 266.5178 15.28030142  8973
STARLINK-31048          
1 58544U 23192P   24027.47934345 -.00002469  00000+0 -76549-4 0  9994
2 58544  53.1590  46.2105 0001444  91.4556 268.6609 15.28004758  9008
STARLINK-31057          
1 58545U 23192Q   24027.34838820  .00005035  00000+0  19423-3 0  9999
2 58545  53.1581  48.2756 0002322 129.3389 230.7817 15.28035765  8961
STARLINK-31050          
1 58546U 23192R   24027.34370399 -.00000700  00000+0 -12583-4 0  9999
2 58546  53.1607  48.2472 0002158 118.2053 241.9165 15.28041189  8897
STARLINK-31063          
1 58547U 23192S   24027.43188423  .00001175  00000+0  55083-4 0  9992
2 58547  53.1594  45.9125 0001696  74.8304 285.2883 15.28012899  8786
STARLINK-31016          
1 58548U 23192T   24027.33915996  .00002740  00000+0  11147-3 0  9996
2 58548  53.1602  46.7657 0002298 116.4342 243.6894 15.28046281  8973
STARLINK-31053          
1 58549U 23192U   24027.46983720 -.00000039  00000+0  11284-4 0  9994
2 58549  53.1598  47.6015 0001766 116.7537 243.3644 15.28026565  8977
STARLINK-31056          
1 58550U 23192V   24027.46039693  .00015843  00000+0  58307-3 0  9991
2 58550  53.1604  46.8380 0002231 121.4369 238.6849 15.28040082  8993
STARLINK-30999          
1 58551U 23192W   24027.25001157 -.01681746  00000+0 -34405-1 0  9998
2 58551  53.1603  39.6352 0000899  78.3426 328.0184 15.48817474  9013
STARLINK-31046          
1 58552U 23192X   24027.45580617  .00000312  00000+0  23960-4 0  9992
2 58552  53.1604  47.5085 0002688  88.9685 271.1622 15.28032979  8974
STARLINK-31044          
1 58589U 23200A   24027.45296363  .00012584  00000+0  48969-3 0  9993
2 58589  43.0011  53.7017 0000644 260.8945  99.1833 15.25936752  7361
STARLINK-31062          
1 58590U 23200B   24027.43275235  .00005875  00000+0  23414-3 0  9991
2 58590  42.9986  54.4231 0000528 268.2572  91.8218 15.25922457  7360
STARLINK-31043          
1 58591U 23200C   24027.49590979  .00015437  00000+0  59739-3 0  9997
2 58591  42.9991  54.0381 0000832 268.9049  91.1707 15.25983900  7370
STARLINK-31096          
1 58592U 23200D   24027.49367816  .00020796  00000+0  80162-3 0  9998
2 58592  42.9999  54.0193 0000729 241.1708 118.9070 15.25949808  7370
STARLINK-31094          
1 58593U 23200E   24027.49142372  .00028529  00000+0  10932-2 0  9996
2 58593  43.0005  54.0050 0000897 320.2224  39.8561 15.26002014  7377
STARLINK-31075          
1 58594U 23200F   24027.48914322  .00009907  00000+0  38751-3 0  9997
2 58594  43.0012  53.9857 0000896 236.3673 123.7093 15.25957423  7378
STARLINK-30857          
1 58595U 23200G   24026.17545793  .00093643  00000+0  35247-2 0  9991
2 58595  43.0001  61.3273 0008958 217.1532 142.8700 15.26062780  7146
STARLINK-31059          
1 58596U 23200H   24027.11871386  .00060948  00000+0  11127-2 0  9990
2 58596  43.0008  52.8961 0000571  73.1782 286.9140 15.48571384  7353
STARLINK-31087          
1 58597U 23200J   24027.41466431  .00024106  00000+0  92743-3 0  9995
2 58597  43.0008  54.2859 0001280 221.8959 138.1794 15.25944030  7239
STARLINK-31079          
1 58598U 23200K   24027.47784668  .00013133  00000+0  51045-3 0  9995
2 58598  43.0006  53.8986 0000867 239.9139 120.1626 15.25945040  7376
STARLINK-31072          
1 58599U 23200L   24027.48675583  .00002613  00000+0  10971-3 0  9996
2 58599  43.0005  53.0760 0001385 274.8204  85.2489 15.25903265  7376
STARLINK-31052          
1 58600U 23200M   24027.47558468  .00000316  00000+0  21921-4 0  9996
2 58600  43.0014  53.8828 0001085 261.5134  98.5594 15.25914200  7368
STARLINK-31074          
1 58601U 23200N   24027.47333102  .00012851  00000+0  50035-3 0  9997
2 58601  43.0012  53.8637 0000991 270.3141  89.7596 15.25903577  7365
STARLINK-31071          
1 58602U 23200P   24027.08689639  .00061977  00000+0  10427-2 0  9997
2 58602  43.0003  51.7514 0000539 340.8028  19.2812 15.50880024  7247
STARLINK-31080          
1 58603U 23200Q   24027.47106265  .00007006  00000+0  27728-3 0  9996
2 58603  43.0008  53.8479 0001063 280.7147  79.3584 15.25927248  7080
STARLINK-31088          
1 58604U 23200R   24027.50938383  .00016008  00000+0  61989-3 0  9994
2 58604  42.9978  53.2572 0000668 254.3286 105.7491 15.25940886  7370
STARLINK-31038          
1 58605U 23200S   24027.46428639  .00018811  00000+0  72653-3 0  9992
2 58605  43.0009  53.7921 0000819 245.3474 114.7292 15.25937839  7360
STARLINK-31082          
1 58606U 23200T   24027.46655573  .00017987  00000+0  69533-3 0  9998
2 58606  43.0006  53.8111 0000986 263.3067  96.7672 15.25930803  7368
STARLINK-31069          
1 58607U 23200U   24027.46200926  .00002638  00000+0  11059-3 0  9994
2 58607  43.0015  53.7740 0000615 227.0883 132.9916 15.25931795  7363
STARLINK-31067          
1 58608U 23200V   24026.54333509  .00063740  00000+0  24198-2 0  9995
2 58608  43.0008  58.9218 0000552 227.9182 132.1623 15.25987971  7201
STARLINK-31085          
1 58609U 23200W   24027.45748374  .00007708  00000+0  30400-3 0  9993
2 58609  43.0026  53.7381 0001013 211.5067 148.5724 15.25932910  7374
STARLINK-31089          
1 58610U 23200X   24027.45054812  .00011111  00000+0  43339-3 0  9990
2 58610  43.0000  52.7843 0000659 261.6709  98.4067 15.25953464  7385
STARLINK-31061          
1 58611U 23200Y   24027.45522849  .00030641  00000+0  11743-2 0  9993
2 58611  43.0009  53.7208 0000933 275.0268  85.0476 15.25967167  7353
STARLINK-31054          
1 58619U 23203B   24027.48209580  .00001594  00000+0  70723-4 0  9991
2 58619  43.0011 102.8490 0000832 255.0565 105.0194 15.25924533  6639
STARLINK-31118          
1 58620U 23203C   24027.47982919  .00007033  00000+0  27820-3 0  9999
2 58620  43.0023 102.8305 0000865 212.9097 147.1700 15.25937007  6750
STARLINK-31134          
1 58621U 23203D   24027.47079498 -.00007162  00000+0 -26440-3 0  9991
2 58621  43.0015 102.7578 0001106 215.7267 144.3510 15.25886234  6698
STARLINK-31133          
1 58622U 23203E   24027.47756864  .00008575  00000+0  33701-3 0  9996
2 58622  43.0015 102.8126 0000750 220.4222 139.6573 15.25936240  5527
STARLINK-31068          
1 58623U 23203F   24027.47528459  .00003610  00000+0  14763-3 0  9996
2 58623  43.0024 102.7942 0001284 231.3381 128.7356 15.25945205  6691
STARLINK-31129          
1 58624U 23203G   24026.68754657  .00005214  00000+0  20897-3 0  9997
2 58624  43.0010 107.2025 0001288 291.9720  68.0994 15.25921197  6577
STARLINK-30774          
1 58625U 23203H   24026.68076082  .00004838  00000+0  19468-3 0  9990
2 58625  43.0013 107.1482 0001065 247.6796 112.3943 15.25906207  6630
STARLINK-31086          
1 58626U 23203J   24027.58334491  .00060386  00000+0  16839-2 0  9990
2 58626  43.0009 101.2387 0001450 293.1415 336.5394 15.35930784  6770
STARLINK-31065          
1 58627U 23203K   24027.47232653  .00008567  00000+0  24024-3 0  9995
2 58627  43.0016 101.9051 0001080 223.5241 136.5529 15.36855273  6641
STARLINK-31092          
1 58628U 23203L   24026.67849419  .00004393  00000+0  17764-3 0  9997
2 58628  42.9992 107.1304 0001770 226.8916 133.1787 15.25917448  6575
STARLINK-31091          
1 58629U 23203M   24027.45945196  .00005475  00000+0  21873-3 0  9992
2 58629  43.0012 102.6694 0001169 229.9294 130.1455 15.25950214  6586
STARLINK-31084          
1 58630U 23203N   24027.45719913  .00006221  00000+0  24724-3 0  9998
2 58630  43.0010 102.6506 0001390 173.6922 186.3946 15.25939475  6750
STARLINK-31064          
1 58631U 23203P   24027.45266996  .00010679  00000+0  41749-3 0  9995
2 58631  43.0018 102.6164 0001535 201.3208 158.7579 15.25908735  6699
STARLINK-31081          
1 58632U 23203Q   24026.91667824 -.00044084  00000+0 -16855-2 0  9999
2 58632  43.0002 105.6072 0001366 261.9807  42.6779 15.25910044  6614
STARLINK-31022          
1 58633U 23203R   24027.45493533  .00005273  00000+0  21108-3 0  9997
2 58633  43.0013 102.6339 0001127 208.1220 151.9570 15.25939049  6751
STARLINK-31025          
1 58634U 23203S   24027.47867968  .00006015  00000+0  11464-3 0  9996
2 58634  42.9996  99.3053 0001359 289.8201  70.2512 15.48932386  6792
STARLINK-31018          
1 58635U 23203T   24026.70787386  .00020162  00000+0  77739-3 0  9993
2 58635  43.0004 107.3550 0000878 281.1432  78.9321 15.25956766  6632
STARLINK-31008          
1 58636U 23203U   24027.49566019  .00000378  00000+0  24318-4 0  9992
2 58636  42.9992 102.9489 0001165 261.0571  99.0148 15.25890794  6752
STARLINK-31077          
1 58637U 23203V   24027.49114023  .00010198  00000+0  39893-3 0  9991
2 58637  43.0005 102.9144 0000952 260.0439 100.0304 15.25929695  6696
STARLINK-31078          
1 58638U 23203W   24026.91667824 -.00006967  00000+0 -25681-3 0  9991
2 58638  43.0005 106.0920 0001160 250.2577 215.3308 15.25901922  6675
STARLINK-31070          
1 58639U 23203X   24027.48434588  .00010753  00000+0  41997-3 0  9998
2 58639  43.0015 102.8627 0001148 243.5304 116.5429 15.25937168  6750
STARLINK-31090          
1 58640U 23203Y   24027.58334491 -.02160961  00000+0 -43168-1 0  9994
2 58640  42.9994  99.6978 0000636 286.0290 257.9114 15.49576595  6801
STARLINK-31113          
1 58668U 23211B   24027.25001157 -.00001352  00000+0 -41870-4 0  9994
2 58668  43.0003 120.6733 0001454 271.0578 344.0079 15.25907091  5686
STARLINK-31128          
1 58669U 23211C   24027.58334491  .00018047  00000+0  69854-3 0  9999
2 58669  43.0010 118.5584 0001697 281.8824 105.9441 15.25886489  5535
